ONEWEB-0207             
1 48242U 21031AJ  26197.63576792 -.00000066  00000+0 -21183-3 0  9998
2 48242  87.8976 283.8331 0002039  91.7576 268.3787 13.14500521252163
ONEWEB-0208             
1 48243U 21031AK  26197.61754314  .00000335  00000+0  86813-3 0  9993
2 48243  87.8968 283.8422 0002388 101.5884 258.5514 13.14503418252173
ONEWEB-0200             
1 48244U 21031AL  26197.65719205 -.00000224  00000+0 -63764-3 0  9997
2 48244  87.8980 283.8236 0002123  98.0613 262.0757 13.14502417252108
ONEWEB-0217             
1 48245U 21031AM  26197.67304630  .00000039  00000+0  71401-4 0  9992
2 48245  87.8976 283.8244 0002417 101.5770 258.5631 13.14502851252050
ONEWEB-0211             
1 48767U 21045A   26197.61063708  .00000139  00000+0  33084-3 0  9993
2 48767  87.8987 253.2134 0002700 105.0808 255.0622 13.16197709248316
ONEWEB-0223             
1 48768U 21045B   26197.62745765  .00000007  00000+0 -14497-4 0  9998
2 48768  87.8992 253.3261 0002342 106.0383 254.1005 13.15548421248276
ONEWEB-0230             
1 48769U 21045C   26197.59893852  .00000159  00000+0  38751-3 0  9991
2 48769  87.8980 253.3431 0001916  95.8517 264.2831 13.15548146248535
ONEWEB-0237             
1 48770U 21045D   26197.66389963 -.00000002  00000+0 -39273-4 0  9994
2 48770  87.8981 253.3320 0002413  95.6177 264.5229 13.15548006248267
ONEWEB-0235             
1 48771U 21045E   26197.63853013 -.00000113  00000+0 -33542-3 0  9999
2 48771  87.8991 253.3254 0002254 107.7272 252.4104 13.15550006248259
ONEWEB-0242             
1 48772U 21045F   26197.63221131 -.00000097  00000+0 -29071-3 0  9993
2 48772  87.8996 253.3239 0001999 102.6160 257.5194 13.15548325248293
ONEWEB-0241             
1 48773U 21045G   26197.61954723  .00000081  00000+0  18050-3 0  9998
2 48773  87.8984 253.3416 0002383 103.9749 256.1646 13.15538321248206
ONEWEB-0243             
1 48774U 21045H   26197.65120961 -.00000101  00000+0 -30215-3 0  9994
2 48774  87.8981 253.3479 0001943 112.1613 247.9724 13.15550336248234
ONEWEB-0222             
1 48775U 21045J   26197.63458264 -.00000079  00000+0 -24336-3 0  9994
2 48775  87.8992 253.3208 0002231 101.5936 258.5445 13.15547525248276
ONEWEB-0244             
1 48776U 21045K   26197.66073439 -.00000010  00000+0 -61699-4 0  9994
2 48776  87.8995 253.3122 0002126 101.4832 258.6537 13.15547794248846
ONEWEB-0247             
1 48777U 21045L   26197.65754586 -.00001317  00000+0 -35334-2 0  9999
2 48777  87.8979 253.3412 0002241 119.7689 240.3664 13.15553213248281
ONEWEB-0245             
1 48778U 21045M   26197.65279602 -.00000086  00000+0 -26303-3 0  9990
2 48778  87.8990 253.3238 0002254  99.6494 260.4891 13.15549645248251
