{"fetched_at":"2026-07-17T06:37:51.309Z","source":"https://celestrak.org/NORAD/elements/gp.php?GROUP=oneweb&FORMAT=JSON","constellation":"oneweb","records":[{"OBJECT_NAME":"ONEWEB-0207","OBJECT_ID":"2021-031AJ","EPOCH":"2026-07-16T15:15:30.348288","CLASSIFICATION_TYPE":"U","MEAN_MOTION":13.14500521,"ECCENTRICITY":0.0002039,"INCLINATION":87.8976,"RA_OF_ASC_NODE":283.8331,"ARG_OF_PERICENTER":91.7576,"MEAN_ANOMALY":268.3787,"EPHEMERIS_TYPE":0,"NORAD_CAT_ID":48242,"ELEMENT_SET_NO":999,"REV_AT_EPOCH":25216,"BSTAR":-0.00021183,"MEAN_MOTION_DOT":-6.6e-7,"MEAN_MOTION_DDOT":0},{"OBJECT_NAME":"ONEWEB-0208","OBJECT_ID":"2021-031AK","EPOCH":"2026-07-16T14:49:15.727296","CLASSIFICATION_TYPE":"U","MEAN_MOTION":13.14503418,"ECCENTRICITY":0.0002388,"INCLINATION":87.8968,"RA_OF_ASC_NODE":283.8422,"ARG_OF_PERICENTER":101.5884,"MEAN_ANOMALY":258.5514,"EPHEMERIS_TYPE":0,"NORAD_CAT_ID":48243,"ELEMENT_SET_NO":999,"REV_AT_EPOCH":25217,"BSTAR":0.00086813,"MEAN_MOTION_DOT":0.00000335,"MEAN_MOTION_DDOT":0},{"OBJECT_NAME":"ONEWEB-0200","OBJECT_ID":"2021-031AL","EPOCH":"2026-07-16T15:46:21.393120","CLASSIFICATION_TYPE":"U","MEAN_MOTION":13.14502417,"ECCENTRICITY":0.0002123,"INCLINATION":87.898,"RA_OF_ASC_NODE":283.8236,"ARG_OF_PERICENTER":98.0613,"MEAN_ANOMALY":262.0757,"EPHEMERIS_TYPE":0,"NORAD_CAT_ID":48244,"ELEMENT_SET_NO":999,"REV_AT_EPOCH":25210,"BSTAR":-0.00063764,"MEAN_MOTION_DOT":-0.00000224,"MEAN_MOTION_DDOT":0},{"OBJECT_NAME":"ONEWEB-0217","OBJECT_ID":"2021-031AM","EPOCH":"2026-07-16T16:09:11.200320","CLASSIFICATION_TYPE":"U","MEAN_MOTION":13.14502851,"ECCENTRICITY":0.0002417,"INCLINATION":87.8976,"RA_OF_ASC_NODE":283.8244,"ARG_OF_PERICENTER":101.577,"MEAN_ANOMALY":258.5631,"EPHEMERIS_TYPE":0,"NORAD_CAT_ID":48245,"ELEMENT_SET_NO":999,"REV_AT_EPOCH":25205,"BSTAR":0.000071401,"MEAN_MOTION_DOT":3.9e-7,"MEAN_MOTION_DDOT":0},{"OBJECT_NAME":"ONEWEB-0211","OBJECT_ID":"2021-045A","EPOCH":"2026-07-16T14:39:19.043712","CLASSIFICATION_TYPE":"U","MEAN_MOTION":13.16197709,"ECCENTRICITY":0.00027,"INCLINATION":87.8987,"RA_OF_ASC_NODE":253.2134,"ARG_OF_PERICENTER":105.0808,"MEAN_ANOMALY":255.0622,"EPHEMERIS_TYPE":0,"NORAD_CAT_ID":48767,"ELEMENT_SET_NO":999,"REV_AT_EPOCH":24831,"BSTAR":0.00033084,"MEAN_MOTION_DOT":0.00000139,"MEAN_MOTION_DDOT":0},{"OBJECT_NAME":"ONEWEB-0223","OBJECT_ID":"2021-045B","EPOCH":"2026-07-16T15:03:32.340960","CLASSIFICATION_TYPE":"U","MEAN_MOTION":13.15548421,"ECCENTRICITY":0.0002342,"INCLINATION":87.8992,"RA_OF_ASC_NODE":253.3261,"ARG_OF_PERICENTER":106.0383,"MEAN_ANOMALY":254.1005,"EPHEMERIS_TYPE":0,"NORAD_CAT_ID":48768,"ELEMENT_SET_NO":999,"REV_AT_EPOCH":24827,"BSTAR":-0.000014497,"MEAN_MOTION_DOT":7e-8,"MEAN_MOTION_DDOT":0},{"OBJECT_NAME":"ONEWEB-0230","OBJECT_ID":"2021-045C","EPOCH":"2026-07-16T14:22:28.288128","CLASSIFICATION_TYPE":"U","MEAN_MOTION":13.15548146,"ECCENTRICITY":0.0001916,"INCLINATION":87.898,"RA_OF_ASC_NODE":253.3431,"ARG_OF_PERICENTER":95.8517,"MEAN_ANOMALY":264.2831,"EPHEMERIS_TYPE":0,"NORAD_CAT_ID":48769,"ELEMENT_SET_NO":999,"REV_AT_EPOCH":24853,"BSTAR":0.00038751,"MEAN_MOTION_DOT":0.00000159,"MEAN_MOTION_DDOT":0},{"OBJECT_NAME":"ONEWEB-0237","OBJECT_ID":"2021-045D","EPOCH":"2026-07-16T15:56:00.928032","CLASSIFICATION_TYPE":"U","MEAN_MOTION":13.15548006,"ECCENTRICITY":0.0002413,"INCLINATION":87.8981,"RA_OF_ASC_NODE":253.332,"ARG_OF_PERICENTER":95.6177,"MEAN_ANOMALY":264.5229,"EPHEMERIS_TYPE":0,"NORAD_CAT_ID":48770,"ELEMENT_SET_NO":999,"REV_AT_EPOCH":24826,"BSTAR":-0.000039273,"MEAN_MOTION_DOT":-2e-8,"MEAN_MOTION_DDOT":0},{"OBJECT_NAME":"ONEWEB-0235","OBJECT_ID":"2021-045E","EPOCH":"2026-07-16T15:19:29.003232","CLASSIFICATION_TYPE":"U","MEAN_MOTION":13.15550006,"ECCENTRICITY":0.0002254,"INCLINATION":87.8991,"RA_OF_ASC_NODE":253.3254,"ARG_OF_PERICENTER":107.7272,"MEAN_ANOMALY":252.4104,"EPHEMERIS_TYPE":0,"NORAD_CAT_ID":48771,"ELEMENT_SET_NO":999,"REV_AT_EPOCH":24825,"BSTAR":-0.00033542,"MEAN_MOTION_DOT":-0.00000113,"MEAN_MOTION_DDOT":0},{"OBJECT_NAME":"ONEWEB-0242","OBJECT_ID":"2021-045F","EPOCH":"2026-07-16T15:10:23.057184","CLASSIFICATION_TYPE":"U","MEAN_MOTION":13.15548325,"ECCENTRICITY":0.0001999,"INCLINATION":87.8996,"RA_OF_ASC_NODE":253.3239,"ARG_OF_PERICENTER":102.616,"MEAN_ANOMALY":257.5194,"EPHEMERIS_TYPE":0,"NORAD_CAT_ID":48772,"ELEMENT_SET_NO":999,"REV_AT_EPOCH":24829,"BSTAR":-0.00029071,"MEAN_MOTION_DOT":-9.7e-7,"MEAN_MOTION_DDOT":0},{"OBJECT_NAME":"ONEWEB-0241","OBJECT_ID":"2021-045G","EPOCH":"2026-07-16T14:52:08.880672","CLASSIFICATION_TYPE":"U","MEAN_MOTION":13.15538321,"ECCENTRICITY":0.0002383,"INCLINATION":87.8984,"RA_OF_ASC_NODE":253.3416,"ARG_OF_PERICENTER":103.9749,"MEAN_ANOMALY":256.1646,"EPHEMERIS_TYPE":0,"NORAD_CAT_ID":48773,"ELEMENT_SET_NO":999,"REV_AT_EPOCH":24820,"BSTAR":0.0001805,"MEAN_MOTION_DOT":8.1e-7,"MEAN_MOTION_DDOT":0},{"OBJECT_NAME":"ONEWEB-0243","OBJECT_ID":"2021-045H","EPOCH":"2026-07-16T15:37:44.510304","CLASSIFICATION_TYPE":"U","MEAN_MOTION":13.15550336,"ECCENTRICITY":0.0001943,"INCLINATION":87.8981,"RA_OF_ASC_NODE":253.3479,"ARG_OF_PERICENTER":112.1613,"MEAN_ANOMALY":247.9724,"EPHEMERIS_TYPE":0,"NORAD_CAT_ID":48774,"ELEMENT_SET_NO":999,"REV_AT_EPOCH":24823,"BSTAR":-0.00030215,"MEAN_MOTION_DOT":-0.00000101,"MEAN_MOTION_DDOT":0},{"OBJECT_NAME":"ONEWEB-0222","OBJECT_ID":"2021-045J","EPOCH":"2026-07-16T15:13:47.940096","CLASSIFICATION_TYPE":"U","MEAN_MOTION":13.15547525,"ECCENTRICITY":0.0002231,"INCLINATION":87.8992,"RA_OF_ASC_NODE":253.3208,"ARG_OF_PERICENTER":101.5936,"MEAN_ANOMALY":258.5445,"EPHEMERIS_TYPE":0,"NORAD_CAT_ID":48775,"ELEMENT_SET_NO":999,"REV_AT_EPOCH":24827,"BSTAR":-0.00024336,"MEAN_MOTION_DOT":-7.9e-7,"MEAN_MOTION_DDOT":0},{"OBJECT_NAME":"ONEWEB-0244","OBJECT_ID":"2021-045K","EPOCH":"2026-07-16T15:51:27.451296","CLASSIFICATION_TYPE":"U","MEAN_MOTION":13.15547794,"ECCENTRICITY":0.0002126,"INCLINATION":87.8995,"RA_OF_ASC_NODE":253.3122,"ARG_OF_PERICENTER":101.4832,"MEAN_ANOMALY":258.6537,"EPHEMERIS_TYPE":0,"NORAD_CAT_ID":48776,"ELEMENT_SET_NO":999,"REV_AT_EPOCH":24884,"BSTAR":-0.000061699,"MEAN_MOTION_DOT":-1e-7,"MEAN_MOTION_DDOT":0},{"OBJECT_NAME":"ONEWEB-0247","OBJECT_ID":"2021-045L","EPOCH":"2026-07-16T15:46:51.962304","CLASSIFICATION_TYPE":"U","MEAN_MOTION":13.15553213,"ECCENTRICITY":0.0002241,"INCLINATION":87.8979,"RA_OF_ASC_NODE":253.3412,"ARG_OF_PERICENTER":119.7689,"MEAN_ANOMALY":240.3664,"EPHEMERIS_TYPE":0,"NORAD_CAT_ID":48777,"ELEMENT_SET_NO":999,"REV_AT_EPOCH":24828,"BSTAR":-0.0035334,"MEAN_MOTION_DOT":-0.00001317,"MEAN_MOTION_DDOT":0},{"OBJECT_NAME":"ONEWEB-0245","OBJECT_ID":"2021-045M","EPOCH":"2026-07-16T15:40:01.576128","CLASSIFICATION_TYPE":"U","MEAN_MOTION":13.15549645,"ECCENTRICITY":0.0002254,"INCLINATION":87.899,"RA_OF_ASC_NODE":253.3238,"ARG_OF_PERICENTER":99.6494,"MEAN_ANOMALY":260.4891,"EPHEMERIS_TYPE":0,"NORAD_CAT_ID":48778,"ELEMENT_SET_NO":999,"REV_AT_EPOCH":24825,"BSTAR":-0.00026303,"MEAN_MOTION_DOT":-8.6e-7,"MEAN_MOTION_DDOT":0}]}
